[{"OBJECT_NAME":"ONEWEB-0094","OBJECT_ID":"2020-020AC","EPOCH":"2026-05-05T05:21:11.968416","MEAN_MOTION":13.17648545,"ECCENTRICITY":0.0001954,"INCLINATION":87.9184,"RA_OF_ASC_NODE":14.3846,"ARG_OF_PERICENTER":76.2297,"MEAN_ANOMALY":283.9052,"EPHEMERIS_TYPE":0,"CLASSIFICATION_TYPE":"U","NORAD_CAT_ID":45450,"ELEMENT_SET_NO":999,"REV_AT_EPOCH":30065,"BSTAR":0.00023915,"MEAN_MOTION_DOT":1.06e-06,"MEAN_MOTION_DDOT":0.0},{"OBJECT_NAME":"ONEWEB-0087","OBJECT_ID":"2020-020AD","EPOCH":"2026-05-05T05:29:25.963872","MEAN_MOTION":13.11419061,"ECCENTRICITY":0.0002099,"INCLINATION":87.894,"RA_OF_ASC_NODE":29.5784,"ARG_OF_PERICENTER":78.2861,"MEAN_ANOMALY":281.8503,"EPHEMERIS_TYPE":0,"CLASSIFICATION_TYPE":"U","NORAD_CAT_ID":45451,"ELEMENT_SET_NO":999,"REV_AT_EPOCH":29695,"BSTAR":-0.0010949,"MEAN_MOTION_DOT":-3.75e-06,"MEAN_MOTION_DDOT":0.0},{"OBJECT_NAME":"ONEWEB-0082","OBJECT_ID":"2020-020AE","EPOCH":"2026-05-05T05:24:44.835552","MEAN_MOTION":13.11418252,"ECCENTRICITY":0.0002049,"INCLINATION":87.8929,"RA_OF_ASC_NODE":29.5989,"ARG_OF_PERICENTER":78.1112,"MEAN_ANOMALY":282.0246,"EPHEMERIS_TYPE":0,"CLASSIFICATION_TYPE":"U","NORAD_CAT_ID":45452,"ELEMENT_SET_NO":999,"REV_AT_EPOCH":29704,"BSTAR":-0.0013537,"MEAN_MOTION_DOT":-4.67e-06,"MEAN_MOTION_DDOT":0.0},{"OBJECT_NAME":"ONEWEB-0050","OBJECT_ID":"2020-020AF","EPOCH":"2026-05-05T07:15:51.168384","MEAN_MOTION":14.90203508,"ECCENTRICITY":0.0005972,"INCLINATION":88.9278,"RA_OF_ASC_NODE":239.0309,"ARG_OF_PERICENTER":114.3412,"MEAN_ANOMALY":245.8442,"EPHEMERIS_TYPE":0,"CLASSIFICATION_TYPE":"U","NORAD_CAT_ID":45453,"ELEMENT_SET_NO":999,"REV_AT_EPOCH":33399,"BSTAR":0.00014148,"MEAN_MOTION_DOT":1.392e-05,"MEAN_MOTION_DDOT":0.0},{"OBJECT_NAME":"ONEWEB-0034","OBJECT_ID":"2020-020AG","EPOCH":"2026-05-05T06:00:23.230368","MEAN_MOTION":13.10934468,"ECCENTRICITY":0.000182,"INCLINATION":87.8933,"RA_OF_ASC_NODE":29.5983,"ARG_OF_PERICENTER":77.9352,"MEAN_ANOMALY":282.198,"EPHEMERIS_TYPE":0,"CLASSIFICATION_TYPE":"U","NORAD_CAT_ID":45454,"ELEMENT_SET_NO":999,"REV_AT_EPOCH":29696,"BSTAR":0.0012919000000000001,"MEAN_MOTION_DOT":4.67e-06,"MEAN_MOTION_DDOT":0.0},{"OBJECT_NAME":"ONEWEB-0060","OBJECT_ID":"2020-020AH","EPOCH":"2026-05-05T05:13:45.505920","MEAN_MOTION":13.1141719,"ECCENTRICITY":0.0002816,"INCLINATION":87.892,"RA_OF_ASC_NODE":29.6108,"ARG_OF_PERICENTER":74.0196,"MEAN_ANOMALY":286.1242,"EPHEMERIS_TYPE":0,"CLASSIFICATION_TYPE":"U","NORAD_CAT_ID":45455,"ELEMENT_SET_NO":999,"REV_AT_EPOCH":29691,"BSTAR":-0.0013666000000000001,"MEAN_MOTION_DOT":-4.72e-06,"MEAN_MOTION_DDOT":0.0},{"OBJECT_NAME":"ONEWEB-0086","OBJECT_ID":"2020-020AJ","EPOCH":"2026-05-05T06:33:07.333920","MEAN_MOTION":13.11416399,"ECCENTRICITY":0.0002279,"INCLINATION":87.893,"RA_OF_ASC_NODE":29.5925,"ARG_OF_PERICENTER":63.2163,"MEAN_ANOMALY":296.9198,"EPHEMERIS_TYPE":0,"CLASSIFICATION_TYPE":"U","NORAD_CAT_ID":45456,"ELEMENT_SET_NO":999,"REV_AT_EPOCH":29698,"BSTAR":0.0007361900000000001,"MEAN_MOTION_DOT":2.74e-06,"MEAN_MOTION_DDOT":0.0},{"OBJECT_NAME":"ONEWEB-0088","OBJECT_ID":"2020-020AK","EPOCH":"2026-05-05T06:01:23.613600","MEAN_MOTION":13.11417509,"ECCENTRICITY":0.0001894,"INCLINATION":87.8942,"RA_OF_ASC_NODE":29.5656,"ARG_OF_PERICENTER":92.0397,"MEAN_ANOMALY":268.0947,"EPHEMERIS_TYPE":0,"CLASSIFICATION_TYPE":"U","NORAD_CAT_ID":45457,"ELEMENT_SET_NO":999,"REV_AT_EPOCH":29691,"BSTAR":0.0012614,"MEAN_MOTION_DOT":4.6e-06,"MEAN_MOTION_DDOT":0.0},{"OBJECT_NAME":"ONEWEB-0102","OBJECT_ID":"2020-100A","EPOCH":"2026-05-05T01:26:19.957344","MEAN_MOTION":13.12444003,"ECCENTRICITY":0.0001867,"INCLINATION":87.8976,"RA_OF_ASC_NODE":359.2508,"ARG_OF_PERICENTER":75.0747,"MEAN_ANOMALY":285.0588,"EPHEMERIS_TYPE":0,"CLASSIFICATION_TYPE":"U","NORAD_CAT_ID":47258,"ELEMENT_SET_NO":999,"REV_AT_EPOCH":25907,"BSTAR":-0.00092111,"MEAN_MOTION_DOT":-3.19e-06,"MEAN_MOTION_DDOT":0.0},{"OBJECT_NAME":"ONEWEB-0109","OBJECT_ID":"2020-100B","EPOCH":"2026-05-05T01:38:31.485408","MEAN_MOTION":13.12443505,"ECCENTRICITY":0.0001624,"INCLINATION":87.8985,"RA_OF_ASC_NODE":359.2286,"ARG_OF_PERICENTER":79.0341,"MEAN_ANOMALY":281.097,"EPHEMERIS_TYPE":0,"CLASSIFICATION_TYPE":"U","NORAD_CAT_ID":47259,"ELEMENT_SET_NO":999,"REV_AT_EPOCH":25890,"BSTAR":-0.001565,"MEAN_MOTION_DOT":-5.5e-06,"MEAN_MOTION_DDOT":0.0},{"OBJECT_NAME":"ONEWEB-0110","OBJECT_ID":"2020-100C","EPOCH":"2026-05-05T02:17:35.218464","MEAN_MOTION":13.12444293,"ECCENTRICITY":0.0001936,"INCLINATION":87.8984,"RA_OF_ASC_NODE":359.2076,"ARG_OF_PERICENTER":76.0224,"MEAN_ANOMALY":284.112,"EPHEMERIS_TYPE":0,"CLASSIFICATION_TYPE":"U","NORAD_CAT_ID":47260,"ELEMENT_SET_NO":999,"REV_AT_EPOCH":25907,"BSTAR":0.001348,"MEAN_MOTION_DOT":4.98e-06,"MEAN_MOTION_DDOT":0.0},{"OBJECT_NAME":"ONEWEB-0111","OBJECT_ID":"2020-100D","EPOCH":"2026-05-05T01:11:41.684064","MEAN_MOTION":13.12441764,"ECCENTRICITY":0.000189,"INCLINATION":87.8987,"RA_OF_ASC_NODE":359.2351,"ARG_OF_PERICENTER":82.0851,"MEAN_ANOMALY":278.0492,"EPHEMERIS_TYPE":0,"CLASSIFICATION_TYPE":"U","NORAD_CAT_ID":47261,"ELEMENT_SET_NO":999,"REV_AT_EPOCH":25890,"BSTAR":-0.0010106,"MEAN_MOTION_DOT":-3.51e-06,"MEAN_MOTION_DDOT":0.0},{"OBJECT_NAME":"ONEWEB-0114","OBJECT_ID":"2020-100E","EPOCH":"2026-05-05T01:55:36.770016","MEAN_MOTION":13.12445017,"ECCENTRICITY":0.0001488,"INCLINATION":87.8986,"RA_OF_ASC_NODE":359.2258,"ARG_OF_PERICENTER":84.6788,"MEAN_ANOMALY":275.451,"EPHEMERIS_TYPE":0,"CLASSIFICATION_TYPE":"U","NORAD_CAT_ID":47262,"ELEMENT_SET_NO":999,"REV_AT_EPOCH":25886,"BSTAR":4.3504e-05,"MEAN_MOTION_DOT":2.8e-07,"MEAN_MOTION_DDOT":0.0},{"OBJECT_NAME":"ONEWEB-0117","OBJECT_ID":"2020-100F","EPOCH":"2026-05-05T01:43:24.909312","MEAN_MOTION":13.12444591,"ECCENTRICITY":0.0001772,"INCLINATION":87.8983,"RA_OF_ASC_NODE":359.2199,"ARG_OF_PERICENTER":80.8103,"MEAN_ANOMALY":279.3226,"EPHEMERIS_TYPE":0,"CLASSIFICATION_TYPE":"U","NORAD_CAT_ID":47263,"ELEMENT_SET_NO":999,"REV_AT_EPOCH":25887,"BSTAR":-0.00068087,"MEAN_MOTION_DOT":-2.32e-06,"MEAN_MOTION_DDOT":0.0},{"OBJECT_NAME":"ONEWEB-0118","OBJECT_ID":"2020-100G","EPOCH":"2026-05-05T00:42:26.553600","MEAN_MOTION":13.12443563,"ECCENTRICITY":0.0001558,"INCLINATION":87.8983,"RA_OF_ASC_NODE":359.2309,"ARG_OF_PERICENTER":90.6555,"MEAN_ANOMALY":269.4752,"EPHEMERIS_TYPE":0,"CLASSIFICATION_TYPE":"U","NORAD_CAT_ID":47264,"ELEMENT_SET_NO":999,"REV_AT_EPOCH":25906,"BSTAR":0.001177,"MEAN_MOTION_DOT":4.36e-06,"MEAN_MOTION_DDOT":0.0},{"OBJECT_NAME":"ONEWEB-0119","OBJECT_ID":"2020-100H","EPOCH":"2026-05-05T01:19:01.240608","MEAN_MOTION":13.12435369,"ECCENTRICITY":0.0001862,"INCLINATION":87.8969,"RA_OF_ASC_NODE":359.2458,"ARG_OF_PERICENTER":73.4435,"MEAN_ANOMALY":286.6898,"EPHEMERIS_TYPE":0,"CLASSIFICATION_TYPE":"U","NORAD_CAT_ID":47265,"ELEMENT_SET_NO":999,"REV_AT_EPOCH":25904,"BSTAR":0.0038510000000000003,"MEAN_MOTION_DOT":1.398e-05,"MEAN_MOTION_DDOT":0.0}]