ONEWEB-0094             
1 45450U 20020AC  26125.22305519  .00000106  00000+0  23915-3 0  9994
2 45450  87.9184  14.3846 0001954  76.2297 283.9052 13.17648545300652
ONEWEB-0087             
1 45451U 20020AD  26125.22877273 -.00000375  00000+0 -10949-2 0  9998
2 45451  87.8940  29.5784 0002099  78.2861 281.8503 13.11419061296959
ONEWEB-0082             
1 45452U 20020AE  26125.22551893 -.00000467  00000+0 -13537-2 0  9994
2 45452  87.8929  29.5989 0002049  78.1112 282.0246 13.11418252297046
ONEWEB-0050             
1 45453U 20020AF  26125.30267556  .00001392  00000+0  14148-3 0  9990
2 45453  88.9278 239.0309 0005972 114.3412 245.8442 14.90203508333998
ONEWEB-0034             
1 45454U 20020AG  26125.25026887  .00000467  00000+0  12919-2 0  9990
2 45454  87.8933  29.5983 0001820  77.9352 282.1980 13.10934468296963
ONEWEB-0060             
1 45455U 20020AH  26125.21788780 -.00000472  00000+0 -13666-2 0  9992
2 45455  87.8920  29.6108 0002816  74.0196 286.1242 13.11417190296919
ONEWEB-0086             
1 45456U 20020AJ  26125.27300155  .00000274  00000+0  73619-3 0  9998
2 45456  87.8930  29.5925 0002279  63.2163 296.9198 13.11416399296980
ONEWEB-0088             
1 45457U 20020AK  26125.25096775  .00000460  00000+0  12614-2 0  9991
2 45457  87.8942  29.5656 0001894  92.0397 268.0947 13.11417509296915
ONEWEB-0102             
1 47258U 20100A   26125.05995321 -.00000319  00000+0 -92111-3 0  9990
2 47258  87.8976 359.2508 0001867  75.0747 285.0588 13.12444003259078
ONEWEB-0109             
1 47259U 20100B   26125.06841997 -.00000550  00000+0 -15650-2 0  9990
2 47259  87.8985 359.2286 0001624  79.0341 281.0970 13.12443505258905
ONEWEB-0110             
1 47260U 20100C   26125.09554651  .00000498  00000+0  13480-2 0  9991
2 47260  87.8984 359.2076 0001936  76.0224 284.1120 13.12444293259071
ONEWEB-0111             
1 47261U 20100D   26125.04978801 -.00000351  00000+0 -10106-2 0  9996
2 47261  87.8987 359.2351 0001890  82.0851 278.0492 13.12441764258908
ONEWEB-0114             
1 47262U 20100E   26125.08028669  .00000028  00000+0  43504-4 0  9998
2 47262  87.8986 359.2258 0001488  84.6788 275.4510 13.12445017258866
ONEWEB-0117             
1 47263U 20100F   26125.07181608 -.00000232  00000+0 -68087-3 0  9992
2 47263  87.8983 359.2199 0001772  80.8103 279.3226 13.12444591258877
ONEWEB-0118             
1 47264U 20100G   26125.02947400  .00000436  00000+0  11770-2 0  9998
2 47264  87.8983 359.2309 0001558  90.6555 269.4752 13.12443563259067
ONEWEB-0119             
1 47265U 20100H   26125.05487547  .00001398  00000+0  38510-2 0  9992
2 47265  87.8969 359.2458 0001862  73.4435 286.6898 13.12435369259046
